start=new Date('2021-11-13T00:00:00.000Z').valueOf();
sats=[{"DECAY_DATE":null,"CLASSIFICATION_TYPE":"U","NORAD_CAT_ID":"47164","MEAN_ANOMALY":"283.7214","FILE":"3213639","TLE_LINE1":"1 47164U 20088AU  21316.86172449  .00001261  00000-0  10357-3 0  9993","ARG_OF_PERICENTER":"76.3970","OBJECT_ID":"2020-088AU","APOAPSIS":"548.448","REF_FRAME":"TEME","RA_OF_ASC_NODE":"164.7552","MEAN_ELEMENT_THEORY":"SGP4","COUNTRY_CODE":"US","MEAN_MOTION_DOT":"0.00001261","REV_AT_EPOCH":"5430","TIME_SYSTEM":"UTC","TLE_LINE2":"2 47164  53.0544 164.7552 0001749  76.3970 283.7214 15.06392497 54303","MEAN_MOTION":"15.06392497","CENTER_NAME":"EARTH","OBJECT_NAME":"STARLINK-1879","BSTAR":"0.00010357000000","LAUNCH_DATE":"2020-11-25","GP_ID":"189645305","PERIOD":"95.593","SITE":"AFETR","OBJECT_TYPE":"PAYLOAD","ELEMENT_SET_NO":"999","INCLINATION":"53.0544","SEMIMAJOR_AXIS":"6925.372","MEAN_MOTION_DDOT":"0.0000000000000","RCS_SIZE":"LARGE","PERIAPSIS":"546.025","EPOCH":"2021-11-12T20:40:52.995936","EPHEMERIS_TYPE":"0","ECCENTRICITY":"0.00017490"},{"MEAN_ELEMENT_THEORY":"SGP4","REF_FRAME":"TEME","RA_OF_ASC_NODE":"184.4400","APOAPSIS":"548.350","CENTER_NAME":"EARTH","TLE_LINE2":"2 47165  53.0533 184.4400 0001614  63.8725 296.2430 15.06394013 54038","MEAN_MOTION":"15.06394013","TIME_SYSTEM":"UTC","REV_AT_EPOCH":"5403","MEAN_MOTION_DOT":"0.00000356","COUNTRY_CODE":"US","CLASSIFICATION_TYPE":"U","DECAY_DATE":null,"ARG_OF_PERICENTER":"63.8725","OBJECT_ID":"2020-088AV","TLE_LINE1":"1 47165U 20088AV  21316.93357791  .00000356  00000-0  42794-4 0  9992","FILE":"3213639","NORAD_CAT_ID":"47165","MEAN_ANOMALY":"296.2430","SEMIMAJOR_AXIS":"6925.367","INCLINATION":"53.0533","OBJECT_TYPE":"PAYLOAD","ELEMENT_SET_NO":"999","ECCENTRICITY":"0.00016140","EPHEMERIS_TYPE":"0","EPOCH":"2021-11-12T22:24:21.131424","PERIAPSIS":"546.114","RCS_SIZE":"LARGE","MEAN_MOTION_DDOT":"0.0000000000000","OBJECT_NAME":"STARLINK-1880","SITE":"AFETR","GP_ID":"189646045","LAUNCH_DATE":"2020-11-25","PERIOD":"95.593","BSTAR":"0.00004279400000"},{"GP_ID":"189646290","PERIOD":"94.060","LAUNCH_DATE":"2020-11-25","SITE":"AFETR","BSTAR":"0.00023987000000","OBJECT_NAME":"STARLINK-1881","EPOCH":"2021-11-12T20:49:37.247808","EPHEMERIS_TYPE":"0","ECCENTRICITY":"0.00015750","MEAN_MOTION_DDOT":"0.0000000000000","RCS_SIZE":"LARGE","PERIAPSIS":"471.914","SEMIMAJOR_AXIS":"6851.128","INCLINATION":"53.0486","OBJECT_TYPE":"PAYLOAD","ELEMENT_SET_NO":"999","TLE_LINE1":"1 47166U 20088AW  21316.86779222  .00006915  00000-0  23987-3 0  9991","ARG_OF_PERICENTER":"75.8469","OBJECT_ID":"2020-088AW","MEAN_ANOMALY":"284.2706","NORAD_CAT_ID":"47166","FILE":"3213639","DECAY_DATE":null,"CLASSIFICATION_TYPE":"U","TIME_SYSTEM":"UTC","TLE_LINE2":"2 47166  53.0486 145.3099 0001575  75.8469 284.2706 15.30945316 54588","MEAN_MOTION":"15.30945316","CENTER_NAME":"EARTH","COUNTRY_CODE":"US","MEAN_MOTION_DOT":"0.00006915","REV_AT_EPOCH":"5458","MEAN_ELEMENT_THEORY":"SGP4","APOAPSIS":"474.072","REF_FRAME":"TEME","RA_OF_ASC_NODE":"145.3099"},{"TLE_LINE1":"1 47167U 20088AX  21316.91883573  .00001150  00000-0  96206-4 0  9994","OBJECT_ID":"2020-088AX","ARG_OF_PERICENTER":"22.9643","FILE":"3213639","NORAD_CAT_ID":"47167","MEAN_ANOMALY":"337.1655","CLASSIFICATION_TYPE":"U","DECAY_DATE":null,"MEAN_MOTION":"15.06400960","TLE_LINE2":"2 47167  53.0528 184.5169 0006949  22.9643 337.1655 15.06400960 54031","CENTER_NAME":"EARTH","TIME_SYSTEM":"UTC","REV_AT_EPOCH":"5403","COUNTRY_CODE":"US","MEAN_MOTION_DOT":"0.00001150","MEAN_ELEMENT_THEORY":"SGP4","RA_OF_ASC_NODE":"184.5169","REF_FRAME":"TEME","APOAPSIS":"552.023","SITE":"AFETR","LAUNCH_DATE":"2020-11-25","GP_ID":"189645558","PERIOD":"95.592","BSTAR":"0.00009620600000","OBJECT_NAME":"STARLINK-1884","ECCENTRICITY":"0.00069490","EPOCH":"2021-11-12T22:03:07.407072","EPHEMERIS_TYPE":"0","PERIAPSIS":"542.398","MEAN_MOTION_DDOT":"0.0000000000000","RCS_SIZE":"LARGE","SEMIMAJOR_AXIS":"6925.346","INCLINATION":"53.0528","ELEMENT_SET_NO":"999","OBJECT_TYPE":"PAYLOAD"},{"CLASSIFICATION_TYPE":"U","DECAY_DATE":null,"FILE":"3213639","MEAN_ANOMALY":"290.8840","NORAD_CAT_ID":"47168","TLE_LINE1":"1 47168U 20088AY  21316.91513526 -.00000470  00000-0 -12627-4 0  9994","OBJECT_ID":"2020-088AY","ARG_OF_PERICENTER":"69.2304","RA_OF_ASC_NODE":"184.5261","REF_FRAME":"TEME","APOAPSIS":"548.210","MEAN_ELEMENT_THEORY":"SGP4","REV_AT_EPOCH":"5403","COUNTRY_CODE":"US","MEAN_MOTION_DOT":"-0.00000470","TLE_LINE2":"2 47168  53.0536 184.5261 0001446  69.2304 290.8840 15.06401780 54031","MEAN_MOTION":"15.06401780","CENTER_NAME":"EARTH","TIME_SYSTEM":"UTC","OBJECT_NAME":"STARLINK-1885","BSTAR":"-0.00001262700000","SITE":"AFETR","LAUNCH_DATE":"2020-11-25","GP_ID":"189645806","PERIOD":"95.592","ELEMENT_SET_NO":"999","OBJECT_TYPE":"PAYLOAD","SEMIMAJOR_AXIS":"6925.343","INCLINATION":"53.0536","PERIAPSIS":"546.207","MEAN_MOTION_DDOT":"0.0000000000000","RCS_SIZE":"LARGE","ECCENTRICITY":"0.00014460","EPOCH":"2021-11-12T21:57:47.686464","EPHEMERIS_TYPE":"0"},{"COUNTRY_CODE":"US","MEAN_MOTION_DOT":"-0.00000625","REV_AT_EPOCH":"5403","TIME_SYSTEM":"UTC","TLE_LINE2":"2 47170  53.0531 184.5796 0001688  61.7591 298.3568 15.06394287 54038","MEAN_MOTION":"15.06394287","CENTER_NAME":"EARTH","APOAPSIS":"548.400","REF_FRAME":"TEME","RA_OF_ASC_NODE":"184.5796","MEAN_ELEMENT_THEORY":"SGP4","NORAD_CAT_ID":"47170","MEAN_ANOMALY":"298.3568","FILE":"3213639","TLE_LINE1":"1 47170U 20088BA  21316.90407774 -.00000625  00000-0 -23082-4 0  9992","ARG_OF_PERICENTER":"61.7591","OBJECT_ID":"2020-088BA","DECAY_DATE":null,"CLASSIFICATION_TYPE":"U","MEAN_MOTION_DDOT":"0.0000000000000","RCS_SIZE":"LARGE","PERIAPSIS":"546.062","EPOCH":"2021-11-12T21:41:52.316736","EPHEMERIS_TYPE":"0","ECCENTRICITY":"0.00016880","OBJECT_TYPE":"PAYLOAD","ELEMENT_SET_NO":"999","SEMIMAJOR_AXIS":"6925.366","INCLINATION":"53.0531","BSTAR":"-0.00002308200000","GP_ID":"189646546","LAUNCH_DATE":"2020-11-25","PERIOD":"95.593","SITE":"AFETR","OBJECT_NAME":"STARLINK-1887"},{"OBJECT_NAME":"STARLINK-1888","SITE":"AFETR","GP_ID":"189646791","PERIOD":"95.592","LAUNCH_DATE":"2020-11-25","BSTAR":"0.00013117000000","SEMIMAJOR_AXIS":"6925.345","INCLINATION":"53.0549","OBJECT_TYPE":"PAYLOAD","ELEMENT_SET_NO":"999","ECCENTRICITY":"0.00017040","EPHEMERIS_TYPE":"0","EPOCH":"2021-11-12T20:34:12.639936","PERIAPSIS":"546.030","RCS_SIZE":"LARGE","MEAN_MOTION_DDOT":"0.0000000000000","CLASSIFICATION_TYPE":"U","DECAY_DATE":null,"OBJECT_ID":"2020-088BB","ARG_OF_PERICENTER":"71.8050","TLE_LINE1":"1 47171U 20088BB  21316.85709074  .00001673  00000-0  13117-3 0  9994","FILE":"3213639","NORAD_CAT_ID":"47171","MEAN_ANOMALY":"288.3124","MEAN_ELEMENT_THEORY":"SGP4","RA_OF_ASC_NODE":"174.7898","REF_FRAME":"TEME","APOAPSIS":"548.390","CENTER_NAME":"EARTH","MEAN_MOTION":"15.06401055","TLE_LINE2":"2 47171  53.0549 174.7898 0001704  71.8050 288.3124 15.06401055 54166","TIME_SYSTEM":"UTC","REV_AT_EPOCH":"5416","MEAN_MOTION_DOT":"0.00001673","COUNTRY_CODE":"US"},{"BSTAR":"0.00037365000000","SITE":"AFETR","GP_ID":"189645058","PERIOD":"92.364","LAUNCH_DATE":"2020-11-25","OBJECT_NAME":"STARLINK-1889","PERIAPSIS":"390.090","RCS_SIZE":"LARGE","MEAN_MOTION_DDOT":"0.0000000000000","ECCENTRICITY":"0.00004600","EPHEMERIS_TYPE":"0","EPOCH":"2021-11-12T20:27:26.737056","ELEMENT_SET_NO":"999","OBJECT_TYPE":"PAYLOAD","INCLINATION":"53.0541","SEMIMAJOR_AXIS":"6768.537","FILE":"3213639","MEAN_ANOMALY":"270.8048","NORAD_CAT_ID":"47172","ARG_OF_PERICENTER":"89.3017","OBJECT_ID":"2020-088BC","TLE_LINE1":"1 47172U 20088BC  21316.85239279  .00029267  00000-0  37365-3 0  9990","CLASSIFICATION_TYPE":"U","DECAY_DATE":null,"REV_AT_EPOCH":"5425","MEAN_MOTION_DOT":"0.00029267","COUNTRY_CODE":"US","CENTER_NAME":"EARTH","MEAN_MOTION":"15.59051958","TLE_LINE2":"2 47172  53.0541 168.4447 0000460  89.3017 270.8048 15.59051958 54256","TIME_SYSTEM":"UTC","REF_FRAME":"TEME","RA_OF_ASC_NODE":"168.4447","APOAPSIS":"390.713","MEAN_ELEMENT_THEORY":"SGP4"},{"TIME_SYSTEM":"UTC","CENTER_NAME":"EARTH","TLE_LINE2":"2 47173  53.0541 184.5141 0001623  73.9479 286.1688 15.06393880 54323","MEAN_MOTION":"15.06393880","MEAN_MOTION_DOT":"-0.00000686","COUNTRY_CODE":"US","REV_AT_EPOCH":"5432","MEAN_ELEMENT_THEORY":"SGP4","APOAPSIS":"548.356","RA_OF_ASC_NODE":"184.5141","REF_FRAME":"TEME","ARG_OF_PERICENTER":"73.9479","OBJECT_ID":"2020-088BD","TLE_LINE1":"1 47173U 20088BD  21316.91789040 -.00000686  00000-0 -27178-4 0  9992","MEAN_ANOMALY":"286.1688","NORAD_CAT_ID":"47173","FILE":"3213553","DECAY_DATE":null,"CLASSIFICATION_TYPE":"U","EPHEMERIS_TYPE":"0","EPOCH":"2021-11-12T22:01:45.730560","ECCENTRICITY":"0.00016230","RCS_SIZE":"LARGE","MEAN_MOTION_DDOT":"0.0000000000000","PERIAPSIS":"546.108","SEMIMAJOR_AXIS":"6925.367","INCLINATION":"53.0541","ELEMENT_SET_NO":"999","OBJECT_TYPE":"PAYLOAD","GP_ID":"189622501","LAUNCH_DATE":"2020-11-25","PERIOD":"95.593","SITE":"AFETR","BSTAR":"-0.00002717800000","OBJECT_NAME":"STARLINK-1890"},{"OBJECT_TYPE":"PAYLOAD","ELEMENT_SET_NO":"999","INCLINATION":"53.0541","SEMIMAJOR_AXIS":"6925.373","RCS_SIZE":"LARGE","MEAN_MOTION_DDOT":"0.0000000000000","PERIAPSIS":"545.962","EPHEMERIS_TYPE":"0","EPOCH":"2021-11-12T22:13:43.610016","ECCENTRICITY":"0.00018430","OBJECT_NAME":"STARLINK-1891","BSTAR":"-0.00002194700000","PERIOD":"95.593","GP_ID":"189646046","LAUNCH_DATE":"2020-11-25","SITE":"AFETR","APOAPSIS":"548.514","REF_FRAME":"TEME","RA_OF_ASC_NODE":"184.4805","MEAN_ELEMENT_THEORY":"SGP4","MEAN_MOTION_DOT":"-0.00000608","COUNTRY_CODE":"US","REV_AT_EPOCH":"5403","TIME_SYSTEM":"UTC","CENTER_NAME":"EARTH","MEAN_MOTION":"15.06391983","TLE_LINE2":"2 47174  53.0541 184.4805 0001843  65.7838 294.3344 15.06391983 54032","DECAY_DATE":null,"CLASSIFICATION_TYPE":"U","MEAN_ANOMALY":"294.3344","NORAD_CAT_ID":"47174","FILE":"3213639","ARG_OF_PERICENTER":"65.7838","OBJECT_ID":"2020-088BE","TLE_LINE1":"1 47174U 20088BE  21316.92619919 -.00000608  00000-0 -21947-4 0  9993"}];
